[{"OBJECT_NAME":"OBJECT H","OBJECT_ID":"2025-055H","EPOCH":"2026-03-09T23:29:50.051328","MEAN_MOTION":15.30330066,"ECCENTRICITY":0.00075967,"INCLINATION":97.636,"RA_OF_ASC_NODE":211.9572,"ARG_OF_PERICENTER":140.4354,"MEAN_ANOMALY":219.7441,"EPHEMERIS_TYPE":0,"CLASSIFICATION_TYPE":"U","NORAD_CAT_ID":63298,"ELEMENT_SET_NO":999,"REV_AT_EPOCH":5423,"BSTAR":0.0015582864,"MEAN_MOTION_DOT":0.00045901,"MEAN_MOTION_DDOT":0},{"OBJECT_NAME":"STARLINK-36442","OBJECT_ID":"2026-005K","EPOCH":"2026-03-09T12:30:06.687072","MEAN_MOTION":15.27594216,"ECCENTRICITY":0.00010969,"INCLINATION":43.0005,"RA_OF_ASC_NODE":238.6778,"ARG_OF_PERICENTER":293.6702,"MEAN_ANOMALY":66.4034,"EPHEMERIS_TYPE":0,"CLASSIFICATION_TYPE":"U","NORAD_CAT_ID":67413,"ELEMENT_SET_NO":999,"REV_AT_EPOCH":867,"BSTAR":0.0013003564,"MEAN_MOTION_DOT":0.0003571,"MEAN_MOTION_DDOT":0}]
